LANDSAT 8
1 39084U 13008A   26119.26958683  .00000581  00000+0  13880-3 0  9998
2 39084  98.1849 190.1433 0001221 102.6042 257.5293 14.57134668690774
